ONEWEB-0656             
1 55817U 23029X   26025.70556742  .00000097  00000+0  20745-3 0  9999
2 55817  87.9229 302.8574 0002117  77.0347 283.1022 13.20773211142342
ONEWEB-0657             
1 55818U 23029Y   26025.84067439  .00000273  00000+0  65008-3 0  9992
2 55818  87.9233 333.3089 0002245  95.9257 264.2132 13.19724498140137
ONEWEB-0658             
1 55819U 23029Z   26025.83594060  .00000009  00000+0 -10043-4 0  9995
2 55819  87.9250 333.2713 0001344  84.7924 275.3362 13.19726042140142
ONEWEB-0660             
1 55820U 23029AA  26025.78640450  .00000206  00000+0  52121-3 0  9996
2 55820  87.9035 318.0775 0001585  68.7829 291.3470 13.14503844140693
ONEWEB-0661             
1 55821U 23029AB  26025.82129450 -.00000074  00000+0 -23350-3 0  9991
2 55821  87.9020 318.1317 0001697  66.7993 293.3315 13.14503140140683
ONEWEB-0662             
1 55822U 23029AC  26025.32333766 -.00000052  00000+0 -17405-3 0  9994
2 55822  87.9027 318.2376 0001525  67.2781 292.8510 13.14503207140661
ONEWEB-0663             
1 55823U 23029AD  26023.24987911 -.00017398  00000+0 -42930-1 0  9991
2 55823  87.9195 303.4171 0003171  55.2900 304.8532 13.20729348142018
ONEWEB-0664             
1 55824U 23029AE  26025.76868456  .00000073  00000+0  14770-3 0  9996
2 55824  87.9219 302.9135 0001916  66.8421 293.2914 13.20773980142343
